{
  "links": {
    "self": "http://api.nasa.gov/neo/rest/v1/neo/54546621?api_key=3hMFcVGG3bILl6a9mBxBdjkWU71phGNDfEmA4fl4"
  },
  "id": "54546621",
  "neo_reference_id": "54546621",
  "name": "(2025 SS3)",
  "designation": "2025 SS3",
  "nasa_jpl_url": "https://ssd.jpl.nasa.gov/tools/sbdb_lookup.html#/?sstr=54546621",
  "absolute_magnitude_h": 23.727,
  "estimated_diameter": {
    "kilometers": {
      "estimated_diameter_min": 0.0477699709,
      "estimated_diameter_max": 0.1068169022
    },
    "meters": {
      "estimated_diameter_min": 47.769970887,
      "estimated_diameter_max": 106.8169021866
    },
    "miles": {
      "estimated_diameter_min": 0.0296828746,
      "estimated_diameter_max": 0.0663729253
    },
    "feet": {
      "estimated_diameter_min": 156.725631285,
      "estimated_diameter_max": 350.4491653699
    }
  },
  "is_potentially_hazardous_asteroid": false,
  "close_approach_data": [
    {
      "close_approach_date": "2025-10-04",
      "close_approach_date_full": "2025-Oct-04 21:43",
      "epoch_date_close_approach": 1759614180000,
      "relative_velocity": {
        "kilometers_per_second": "12.9962346815",
        "kilometers_per_hour": "46786.4448533122",
        "miles_per_hour": "29071.2773589928"
      },
      "miss_distance": {
        "astronomical": "0.0656860116",
        "lunar": "25.5518585124",
        "kilometers": "9826487.424155292",
        "miles": "6105896.1512033496"
      },
      "orbiting_body": "Earth"
    }
  ],
  "orbital_data": {
    "orbit_id": "6",
    "orbit_determination_date": "2025-09-30 07:53:24",
    "first_observation_date": "2025-09-20",
    "last_observation_date": "2025-09-30",
    "data_arc_in_days": 10,
    "observations_used": 42,
    "orbit_uncertainty": "8",
    "minimum_orbit_intersection": ".00679869",
    "jupiter_tisserand_invariant": "3.163",
    "epoch_osculation": "2460939.5",
    "eccentricity": ".6288185528691852",
    "semi_major_axis": "2.491915556752088",
    "inclination": "2.8953688232872",
    "ascending_node_longitude": "193.4930596397699",
    "orbital_period": "1436.806913067069",
    "perihelion_distance": ".9249528224830301",
    "perihelion_argument": "223.6773100758568",
    "aphelion_distance": "4.058878291021146",
    "perihelion_time": "2460985.517001494603",
    "mean_anomaly": "348.4701831628201",
    "mean_motion": ".2505555873416065",
    "equinox": "J2000",
    "orbit_class": {
      "orbit_class_type": "APO",
      "orbit_class_description": "Near-Earth asteroid orbits which cross the Earth\u2019s orbit similar to that of 1862 Apollo",
      "orbit_class_range": "a (semi-major axis) > 1.0 AU; q (perihelion) < 1.017 AU"
    }
  },
  "is_sentry_object": false
}